0 PEGASUS R/B
1 28983U 06008D   13281.17177053  .00016577  16266-5  83360-3 0  5508
2 28983 105.5812 336.2414 2216571 126.9250 289.4925 10.92088373293842
0 PEGASUS R/B
1 28983U 06008D   13282.08663904  .00023648  16454-5  11775-2 0  5511
2 28983 105.5811 337.1988 2216353 125.7819 286.3745 10.92132835293943
0 PEGASUS R/B
1 28983U 06008D   13284.19781715  .00022828  16369-5  11396-2 0  5520
2 28983 105.5809 339.4088 2215748 123.1448 307.2175 10.92228662294173
0 PEGASUS R/B
1 28983U 06008D   13286.11632731  .00022104  16298-5  11072-2 0  5537
2 28983 105.5807 341.4176 2215136 120.7464 291.1377 10.92312084294384
0 PEGASUS R/B
1 28983U 06008D   13287.78466177  .00026228  00000-0  12891-2 0  5541
2 28983 105.5804 343.1647 2214633 118.6605 011.7737 10.92379851294568
0 PEGASUS R/B
1 28983U 06008D   13289.70431964  .00022695  00000-0  11178-2 0  5553
2 28983 105.5794 345.1748 2214176 116.2596 001.2448 10.92453014294775
0 PEGASUS R/B
1 28983U 06008D   13290.68791270  .00020769  00000-0  10239-2 0  5569
2 28983 105.5797 346.2021 2213583 115.0426 269.6392 10.92501370294883
0 PEGASUS R/B
1 28983U 06008D   13290.71122413  .00020684  00000-0  10205-2 0  5569
2 28983 105.5790 346.2296 2213907 115.0003 001.3077 10.92489985294889
0 PEGASUS R/B
1 28983U 06008D   13292.16603152  .00017588  00000-0  87006-3 0  5578
2 28983 105.5780 347.7533 2213532 113.1780 323.1627 10.92541360295044
0 PEGASUS R/B
1 28983U 06008D   13294.17921306  .00020803  00000-0  10282-2 0  5581
2 28983 105.5770 349.8620 2213161 110.6608 321.5865 10.92614019295264
